{"type": "FeatureCollection", "features": [ {"type": "Feature", "properties": {"norad_id": 38779, "name": "GSAT-10 (GAGAN/PRN 128)", "group": "gnss", "lat": 0.00832774071232148, "lon": 88.79686763545469, "alt_km": 35779.46859835422, "timestamp": "2025-12-02T19:35:50.798651+00:00", "meta": {"OBJECT_NAME": "GSAT-10 (GAGAN/PRN 128)", "OBJECT_ID": "2012-051B", "EPOCH": "2025-12-02T03:54:21.802176", "MEAN_MOTION": 1.00269269, "ECCENTRICITY": 0.00026059, "INCLINATION": 0.0354, "RA_OF_ASC_NODE": 262.0904, "ARG_OF_PERICENTER": 234.6575, "MEAN_ANOMALY": 76.0892, "EPHEMERIS_TYPE": 0, "CLASSIFICATION_TYPE": "U", "NORAD_CAT_ID": 38779, "ELEMENT_SET_NO": 999, "REV_AT_EPOCH": 4812, "BSTAR": 0, "MEAN_MOTION_DOT": -1.43e-06, "MEAN_MOTION_DDOT": 0}, "tle": {"line1": "1 38779U 12051B   25336.16275234 -.00000143  00000+0  00000+0 0  9999", "line2": "2 38779   0.0354 262.0904 0002605 234.6575  76.0892  1.00269269 48128"}}, "geometry": {"type": "Point", "coordinates": [88.79686763545469, 0.00832774071232148]}}, {"type": "Feature", "properties": {"norad_id": 38833, "name": "GPS BIIF-3  (PRN 24)", "group": "gnss", "lat": -35.155663371809965, "lon": 120.26044136463415, "alt_km": 20335.69774554888, "timestamp": "2025-12-02T19:35:50.798663+00:00", "meta": {"OBJECT_NAME": "GPS BIIF-3  (PRN 24)", "OBJECT_ID": "2012-053A", "EPOCH": "2025-12-01T21:10:58.228896", "MEAN_MOTION": 2.00564835, "ECCENTRICITY": 0.01754817, "INCLINATION": 53.5559, "RA_OF_ASC_NODE": 151.6834, "ARG_OF_PERICENTER": 63.8436, "MEAN_ANOMALY": 297.9871, "EPHEMERIS_TYPE": 0, "CLASSIFICATION_TYPE": "U", "NORAD_CAT_ID": 38833, "ELEMENT_SET_NO": 999, "REV_AT_EPOCH": 9548, "BSTAR": 0, "MEAN_MOTION_DOT": 1.16e-06, "MEAN_MOTION_DDOT": 0}, "tle": {"line1": "1 38833U 12053A   25335.88261839  .00000116  00000+0  00000+0 0  9995", "line2": "2 38833  53.5559 151.6834 0175481  63.8436 297.9871  2.00564835 95485"}}, "geometry": {"type": "Point", "coordinates": [120.26044136463415, -35.155663371809965]}}, {"type": "Feature", "properties": {"norad_id": 38857, "name": "GSAT0103 (GALILEO-FM3)", "group": "gnss", "lat": -55.518923717440146, "lon": 10.60464016537692, "alt_km": 23221.572863189565, "timestamp": "2025-12-02T19:35:50.798675+00:00", "meta": {"OBJECT_NAME": "GSAT0103 (GALILEO-FM3)", "OBJECT_ID": "2012-055A", "EPOCH": "2025-11-28T20:42:38.723616", "MEAN_MOTION": 1.70473322, "ECCENTRICITY": 0.00022412, "INCLINATION": 55.6842, "RA_OF_ASC_NODE": 107.0477, "ARG_OF_PERICENTER": 266.7022, "MEAN_ANOMALY": 93.2527, "EPHEMERIS_TYPE": 0, "CLASSIFICATION_TYPE": "U", "NORAD_CAT_ID": 38857, "ELEMENT_SET_NO": 999, "REV_AT_EPOCH": 8159, "BSTAR": 0, "MEAN_MOTION_DOT": 5.5e-07, "MEAN_MOTION_DDOT": 0}, "tle": {"line1": "1 38857U 12055A   25332.86294819  .00000055  00000+0  00000+0 0  9994", "line2": "2 38857  55.6842 107.0477 0002241 266.7022  93.2527  1.70473322 81593"}}, "geometry": {"type": "Point", "coordinates": [10.60464016537692, -55.518923717440146]}}, {"type": "Feature", "properties": {"norad_id": 38953, "name": "BEIDOU-2 G6 (C02)", "group": "gnss", "lat": 0.9937810566409432, "lon": 89.95520266515948, "alt_km": 35782.65789193446, "timestamp": "2025-12-02T19:35:50.798689+00:00", "meta": {"OBJECT_NAME": "BEIDOU-2 G6 (C02)", "OBJECT_ID": "2012-059A", "EPOCH": "2025-12-02T03:54:44.266176", "MEAN_MOTION": 1.0027097, "ECCENTRICITY": 0.00072922, "INCLINATION": 3.9201, "RA_OF_ASC_NODE": 75.6056, "ARG_OF_PERICENTER": 290.7249, "MEAN_ANOMALY": 207.6781, "EPHEMERIS_TYPE": 0, "CLASSIFICATION_TYPE": "U", "NORAD_CAT_ID": 38953, "ELEMENT_SET_NO": 999, "REV_AT_EPOCH": 4793, "BSTAR": 0, "MEAN_MOTION_DOT": -1.56e-06, "MEAN_MOTION_DDOT": 0}, "tle": {"line1": "1 38953U 12059A   25336.16301234 -.00000156  00000+0  00000+0 0  9995", "line2": "2 38953   3.9201  75.6056 0007292 290.7249 207.6781  1.00270970 47937"}}, "geometry": {"type": "Point", "coordinates": [89.95520266515948, 0.9937810566409432]}}, {"type": "Feature", "properties": {"norad_id": 38977, "name": "LUCH 5B (SDCM/PRN 125)", "group": "gnss", "lat": -8.884175704764528, "lon": -10.061891382269433, "alt_km": 35798.52999982017, "timestamp": "2025-12-02T19:35:50.798701+00:00", "meta": {"OBJECT_NAME": "LUCH 5B (SDCM/PRN 125)", "OBJECT_ID": "2012-061A", "EPOCH": "2025-12-02T00:00:34.725024", "MEAN_MOTION": 1.00269053, "ECCENTRICITY": 0.00075983, "INCLINATION": 10.0566, "RA_OF_ASC_NODE": 51.8026, "ARG_OF_PERICENTER": 188.6335, "MEAN_ANOMALY": 174.4538, "EPHEMERIS_TYPE": 0, "CLASSIFICATION_TYPE": "U", "NORAD_CAT_ID": 38977, "ELEMENT_SET_NO": 999, "REV_AT_EPOCH": 4763, "BSTAR": 0, "MEAN_MOTION_DOT": -1.23e-06, "MEAN_MOTION_DDOT": 0}, "tle": {"line1": "1 38977U 12061A   25336.00040191 -.00000123  00000+0  00000+0 0  9993", "line2": "2 38977  10.0566  51.8026 0007598 188.6335 174.4538  1.00269053 47637"}}, "geometry": {"type": "Point", "coordinates": [-10.061891382269433, -8.884175704764528]}}, {"type": "Feature", "properties": {"norad_id": 39155, "name": "COSMOS 2485 (747)", "group": "gnss", "lat": 38.618617860899825, "lon": 101.72867033551064, "alt_km": 19187.096787347793, "timestamp": "2025-12-02T19:35:50.798713+00:00", "meta": {"OBJECT_NAME": "COSMOS 2485 (747)", "OBJECT_ID": "2013-019A", "EPOCH": "2025-11-24T07:30:54.982368", "MEAN_MOTION": 2.13103115, "ECCENTRICITY": 0.0024274, "INCLINATION": 65.3036, "RA_OF_ASC_NODE": 80.4871, "ARG_OF_PERICENTER": 228.0776, "MEAN_ANOMALY": 131.7167, "EPHEMERIS_TYPE": 0, "CLASSIFICATION_TYPE": "U", "NORAD_CAT_ID": 39155, "ELEMENT_SET_NO": 999, "REV_AT_EPOCH": 9791, "BSTAR": 0, "MEAN_MOTION_DOT": 1.2e-07, "MEAN_MOTION_DDOT": 0}, "tle": {"line1": "1 39155U 13019A   25328.31313637  .00000012  00000+0  00000+0 0  9995", "line2": "2 39155  65.3036  80.4871 0024274 228.0776 131.7167  2.13103115 97916"}}, "geometry": {"type": "Point", "coordinates": [101.72867033551064, 38.618617860899825]}}, {"type": "Feature", "properties": {"norad_id": 39166, "name": "GPS BIIF-4  (PRN 27)", "group": "gnss", "lat": 41.2968281059007, "lon": -44.55094354022272, "alt_km": 19814.76392703301, "timestamp": "2025-12-02T19:35:50.798724+00:00", "meta": {"OBJECT_NAME": "GPS BIIF-4  (PRN 27)", "OBJECT_ID": "2013-023A", "EPOCH": "2025-12-01T17:54:55.988640", "MEAN_MOTION": 2.00565053, "ECCENTRICITY": 0.0137237, "INCLINATION": 54.6617, "RA_OF_ASC_NODE": 277.0152, "ARG_OF_PERICENTER": 48.4926, "MEAN_ANOMALY": 312.6731, "EPHEMERIS_TYPE": 0, "CLASSIFICATION_TYPE": "U", "NORAD_CAT_ID": 39166, "ELEMENT_SET_NO": 999, "REV_AT_EPOCH": 9192, "BSTAR": 0, "MEAN_MOTION_DOT": -4e-07, "MEAN_MOTION_DDOT": 0}, "tle": {"line1": "1 39166U 13023A   25335.74648135 -.00000040  00000+0  00000+0 0  9993", "line2": "2 39166  54.6617 277.0152 0137237  48.4926 312.6731  2.00565053 91926"}}, "geometry": {"type": "Point", "coordinates": [-44.55094354022272, 41.2968281059007]}}, {"type": "Feature", "properties": {"norad_id": 39199, "name": "IRNSS-1A", "group": "gnss", "lat": -3.2233615713594097, "lon": 62.11070401473958, "alt_km": 35875.06741168939, "timestamp": "2025-12-02T19:35:50.798735+00:00", "meta": {"OBJECT_NAME": "IRNSS-1A", "OBJECT_ID": "2013-034A", "EPOCH": "2025-11-29T20:16:50.456352", "MEAN_MOTION": 1.00278191, "ECCENTRICITY": 0.00217208, "INCLINATION": 35.2795, "RA_OF_ASC_NODE": 66.7394, "ARG_OF_PERICENTER": 185.4975, "MEAN_ANOMALY": 176.0627, "EPHEMERIS_TYPE": 0, "CLASSIFICATION_TYPE": "U", "NORAD_CAT_ID": 39199, "ELEMENT_SET_NO": 999, "REV_AT_EPOCH": 4537, "BSTAR": 0, "MEAN_MOTION_DOT": 8.1e-07, "MEAN_MOTION_DDOT": 0}, "tle": {"line1": "1 39199U 13034A   25333.84502843  .00000081  00000+0  00000+0 0  9999", "line2": "2 39199  35.2795  66.7394 0021720 185.4975 176.0627  1.00278191 45377"}}, "geometry": {"type": "Point", "coordinates": [62.11070401473958, -3.2233615713594097]}}, {"type": "Feature", "properties": {"norad_id": 39533, "name": "GPS BIIF-5  (PRN 30)", "group": "gnss", "lat": 41.723075608524255, "lon": -161.56831252799347, "alt_km": 20383.09868307437, "timestamp": "2025-12-02T19:35:50.798746+00:00", "meta": {"OBJECT_NAME": "GPS BIIF-5  (PRN 30)", "OBJECT_ID": "2014-008A", "EPOCH": "2025-12-01T17:47:12.744672", "MEAN_MOTION": 2.00573724, "ECCENTRICITY": 0.00789385, "INCLINATION": 53.6295, "RA_OF_ASC_NODE": 157.3734, "ARG_OF_PERICENTER": 226.3523, "MEAN_ANOMALY": 133.0366, "EPHEMERIS_TYPE": 0, "CLASSIFICATION_TYPE": "U", "NORAD_CAT_ID": 39533, "ELEMENT_SET_NO": 999, "REV_AT_EPOCH": 8572, "BSTAR": 0, "MEAN_MOTION_DOT": 1.22e-06, "MEAN_MOTION_DDOT": 0}, "tle": {"line1": "1 39533U 14008A   25335.74111973  .00000122  00000+0  00000+0 0  9990", "line2": "2 39533  53.6295 157.3734 0078938 226.3523 133.0366  2.00573724 85727"}}, "geometry": {"type": "Point", "coordinates": [-161.56831252799347, 41.723075608524255]}}, {"type": "Feature", "properties": {"norad_id": 39617, "name": "ASTRA 5B (EGNOS/PRN 123)", "group": "gnss", "lat": -0.010042525387424544, "lon": 29.427236232712783, "alt_km": 35797.11293559414, "timestamp": "2025-12-02T19:35:50.798758+00:00", "meta": {"OBJECT_NAME": "ASTRA 5B (EGNOS/PRN 123)", "OBJECT_ID": "2014-011B", "EPOCH": "2025-12-02T07:02:48.748992", "MEAN_MOTION": 1.0027336, "ECCENTRICITY": 0.000477, "INCLINATION": 0.0835, "RA_OF_ASC_NODE": 54.9378, "ARG_OF_PERICENTER": 209.7898, "MEAN_ANOMALY": 295.9047, "EPHEMERIS_TYPE": 0, "CLASSIFICATION_TYPE": "U", "NORAD_CAT_ID": 39617, "ELEMENT_SET_NO": 999, "REV_AT_EPOCH": 4269, "BSTAR": 0, "MEAN_MOTION_DOT": 1.58e-06, "MEAN_MOTION_DDOT": 0}, "tle": {"line1": "1 39617U 14011B   25336.29361978  .00000158  00000+0  00000+0 0  9999", "line2": "2 39617   0.0835  54.9378 0004770 209.7898 295.9047  1.00273360 42690"}}, "geometry": {"type": "Point", "coordinates": [29.427236232712783, -0.010042525387424544]}}]}